{
  "links" : {
    "next" : "https://api.nasa.gov/neo/rest/v1/feed?start_date=1998-11-23&end_date=1998-11-23&detailed=true&api_key=t0TVs3DtDT2H8Oy2Zy8m2eVrNsAVKAexjcZXUckd",
    "prev" : "https://api.nasa.gov/neo/rest/v1/feed?start_date=1998-11-21&end_date=1998-11-21&detailed=true&api_key=t0TVs3DtDT2H8Oy2Zy8m2eVrNsAVKAexjcZXUckd",
    "self" : "https://api.nasa.gov/neo/rest/v1/feed?start_date=1998-11-22&end_date=1998-11-22&detailed=true&api_key=t0TVs3DtDT2H8Oy2Zy8m2eVrNsAVKAexjcZXUckd"
  },
  "element_count" : 5,
  "near_earth_objects" : {
    "1998-11-22" : [ {
      "links" : {
        "self" : "https://api.nasa.gov/neo/rest/v1/neo/2159402?api_key=t0TVs3DtDT2H8Oy2Zy8m2eVrNsAVKAexjcZXUckd"
      },
      "neo_reference_id" : "2159402",
      "name" : "159402 (1999 AP10)",
      "nasa_jpl_url" : "http://ssd.jpl.nasa.gov/sbdb.cgi?sstr=2159402",
      "absolute_magnitude_h" : 16.1,
      "estimated_diameter" : {
        "kilometers" : {
          "estimated_diameter_min" : 1.6016033798,
          "estimated_diameter_max" : 3.5812940302
        },
        "meters" : {
          "estimated_diameter_min" : 1601.6033797856,
          "estimated_diameter_max" : 3581.2940301941
        },
        "miles" : {
          "estimated_diameter_min" : 0.9951898937,
          "estimated_diameter_max" : 2.2253122528
        },
        "feet" : {
          "estimated_diameter_min" : 5254.6044325359,
          "estimated_diameter_max" : 11749.652706022
        }
      },
      "is_potentially_hazardous_asteroid" : false,
      "close_approach_data" : [ {
        "close_approach_date" : "1998-11-22",
        "epoch_date_close_approach" : 911721600000,
        "relative_velocity" : {
          "kilometers_per_second" : "8.8002300304",
          "kilometers_per_hour" : "31680.828109511",
          "miles_per_hour" : "19685.2345550459"
        },
        "miss_distance" : {
          "astronomical" : "0.1347085252",
          "lunar" : "52.4016151428",
          "kilometers" : "20152108",
          "miles" : "12521940"
        },
        "orbiting_body" : "Earth"
      } ],
      "orbital_data" : {
        "orbit_id" : "111",
        "orbit_determination_date" : "2017-04-06 09:26:51",
        "orbit_uncertainty" : "0",
        "minimum_orbit_intersection" : ".0700687",
        "jupiter_tisserand_invariant" : "3.286",
        "epoch_osculation" : "2458000.5",
        "eccentricity" : ".5747639517191429",
        "semi_major_axis" : "2.376381573251944",
        "inclination" : "7.624759538934526",
        "ascending_node_longitude" : "357.3875869375956",
        "orbital_period" : "1338.051074397114",
        "perihelion_distance" : "1.010523109417103",
        "perihelion_argument" : "46.93603396572701",
        "aphelion_distance" : "3.742240037086785",
        "perihelion_time" : "2457816.577359277907",
        "mean_anomaly" : "49.48402338811077",
        "mean_motion" : ".2690480258103788",
        "equinox" : "J2000"
      }
    }, {
      "links" : {
        "self" : "https://api.nasa.gov/neo/rest/v1/neo/2162215?api_key=t0TVs3DtDT2H8Oy2Zy8m2eVrNsAVKAexjcZXUckd"
      },
      "neo_reference_id" : "2162215",
      "name" : "162215 (1999 TL12)",
      "nasa_jpl_url" : "http://ssd.jpl.nasa.gov/sbdb.cgi?sstr=2162215",
      "absolute_magnitude_h" : 19.0,
      "estimated_diameter" : {
        "kilometers" : {
          "estimated_diameter_min" : 0.4212646106,
          "estimated_diameter_max" : 0.9419763057
        },
        "meters" : {
          "estimated_diameter_min" : 421.2646105562,
          "estimated_diameter_max" : 941.9763057186
        },
        "miles" : {
          "estimated_diameter_min" : 0.2617616123,
          "estimated_diameter_max" : 0.5853167591
        },
        "feet" : {
          "estimated_diameter_min" : 1382.1017848971,
          "estimated_diameter_max" : 3090.4735428537
        }
      },
      "is_potentially_hazardous_asteroid" : false,
      "close_approach_data" : [ {
        "close_approach_date" : "1998-11-22",
        "epoch_date_close_approach" : 911721600000,
        "relative_velocity" : {
          "kilometers_per_second" : "11.6528326986",
          "kilometers_per_hour" : "41950.1977151274",
          "miles_per_hour" : "26066.2214636024"
        },
        "miss_distance" : {
          "astronomical" : "0.353932025",
          "lunar" : "137.6795501709",
          "kilometers" : "52947476",
          "miles" : "32900038"
        },
        "orbiting_body" : "Earth"
      } ],
      "orbital_data" : {
        "orbit_id" : "47",
        "orbit_determination_date" : "2017-09-25 06:51:59",
        "orbit_uncertainty" : "0",
        "minimum_orbit_intersection" : ".256574",
        "jupiter_tisserand_invariant" : "5.594",
        "epoch_osculation" : "2458000.5",
        "eccentricity" : ".4365980742573483",
        "semi_major_axis" : "1.081562223786385",
        "inclination" : "17.33731015247004",
        "ascending_node_longitude" : "202.3455585401535",
        "orbital_period" : "410.8428109516138",
        "perihelion_distance" : ".6093542396917542",
        "perihelion_argument" : "346.7647825958768",
        "aphelion_distance" : "1.553770207881016",
        "perihelion_time" : "2457814.574538835475",
        "mean_anomaly" : "162.9167268722439",
        "mean_motion" : ".8762475341022782",
        "equinox" : "J2000"
      }
    }, {
      "links" : {
        "self" : "https://api.nasa.gov/neo/rest/v1/neo/2332408?api_key=t0TVs3DtDT2H8Oy2Zy8m2eVrNsAVKAexjcZXUckd"
      },
      "neo_reference_id" : "2332408",
      "name" : "332408 (2007 MM13)",
      "nasa_jpl_url" : "http://ssd.jpl.nasa.gov/sbdb.cgi?sstr=2332408",
      "absolute_magnitude_h" : 17.8,
      "estimated_diameter" : {
        "kilometers" : {
          "estimated_diameter_min" : 0.7320739893,
          "estimated_diameter_max" : 1.6369672047
        },
        "meters" : {
          "estimated_diameter_min" : 732.0739893473,
          "estimated_diameter_max" : 1636.96720474
        },
        "miles" : {
          "estimated_diameter_min" : 0.4548895468,
          "estimated_diameter_max" : 1.017163949
        },
        "feet" : {
          "estimated_diameter_min" : 2401.8176272101,
          "estimated_diameter_max" : 5370.6274839991
        }
      },
      "is_potentially_hazardous_asteroid" : false,
      "close_approach_data" : [ {
        "close_approach_date" : "1998-11-22",
        "epoch_date_close_approach" : 911721600000,
        "relative_velocity" : {
          "kilometers_per_second" : "32.961316307",
          "kilometers_per_hour" : "118660.7387052864",
          "miles_per_hour" : "73731.168447182"
        },
        "miss_distance" : {
          "astronomical" : "0.3719574439",
          "lunar" : "144.6914520264",
          "kilometers" : "55644044",
          "miles" : "34575604"
        },
        "orbiting_body" : "Earth"
      } ],
      "orbital_data" : {
        "orbit_id" : "77",
        "orbit_determination_date" : "2017-09-17 06:19:53",
        "orbit_uncertainty" : "0",
        "minimum_orbit_intersection" : ".163058",
        "jupiter_tisserand_invariant" : "4.385",
        "epoch_osculation" : "2458000.5",
        "eccentricity" : ".5686087459518301",
        "semi_major_axis" : "1.400998187433881",
        "inclination" : "38.19808341632958",
        "ascending_node_longitude" : "242.6311657761684",
        "orbital_period" : "605.6961134995487",
        "perihelion_distance" : ".6043783649963151",
        "perihelion_argument" : "294.4312748877084",
        "aphelion_distance" : "2.197618009871448",
        "perihelion_time" : "2457856.092292441992",
        "mean_anomaly" : "85.82979742187426",
        "mean_motion" : ".5943574541365589",
        "equinox" : "J2000"
      }
    } ]
  }
}